GLOBALSTAR M001         
1 25162U 98008A   24136.05254977 -.00000081  00000+0  11981-3 0  9998
2 25162  52.0052  51.9993 0001815 111.7265 261.5401 12.38184282194503
GLOBALSTAR M002         
1 25164U 98008C   24136.23464445 -.00000079  00000+0 -50856-4 0  9996
2 25164  51.9979 157.9972 0001266 144.1457 215.9448 11.61502952137894
GLOBALSTAR M003         
1 25165U 98008D   24135.91249718  .00000023  00000+0  12044-2 0  9997
2 25165  51.9843 191.5950 0008182 210.1846 321.1882 12.12001680184922
GLOBALSTAR M014         
1 25306U 98023A   24135.60269887 -.00000059  00000+0  35326-3 0  9995
2 25306  51.9829  91.1815 0001200 357.5248 173.2199 11.65467735144695
GLOBALSTAR M006         
1 25307U 98023B   24136.24824135 -.00000052  00000+0  48517-3 0  9999
2 25307  51.9903 127.1519 0003445 108.3312 264.8440 11.58163538170834
GLOBALSTAR M015         
1 25308U 98023C   24136.25253525 -.00000052  00000+0  48674-3 0  9994
2 25308  51.9806 207.3767 0012617  90.7983 303.1782 11.48852349148714
